PRAETORIAN SDA_617      
1 65580U 25203R   26063.11712012  .00000062  00000+0  45800-4 0  9996
2 65580  81.3012 108.0457 0008694 114.6440 245.5623 13.83190602 24166
PRAETORIAN SDA_618      
1 65581U 25203S   26063.13697919  .00000293  00000+0  24969-3 0  9995
2 65581  81.2998 107.8813 0010907 115.8637 244.3646 13.84761839 24173
PRAETORIAN SDA_619      
1 65582U 25203T   26063.10953377  .00000349  00000+0  30357-3 0  9996
2 65582  81.3020 108.0434 0009352 114.4353 245.7780 13.83930618 24799
PRAETORIAN SDA_620      
1 65583U 25203U   26063.11773607  .00000380  00000+0  33339-3 0  9992
2 65583  81.3005 108.0298 0008869 113.6406 246.5682 13.83705129 24161
PRAETORIAN SDA_621      
1 65584U 25203V   26063.17444241  .00000090  00000+0  70379-4 0  9992
2 65584  81.2995 107.9276 0008654 109.2756 250.9338 13.83786644 24173
PRAETORIAN SDA_601      
1 65585U 25203W   26063.11262731  .00000384  00000+0  33771-3 0  9999
2 65585  81.3013 108.1944 0006421 120.5917 239.5873 13.83484756 24150
