[{"OBJECT_NAME":"PRAETORIAN SDA_617","OBJECT_ID":"2025-203R","EPOCH":"2026-03-04T02:48:39.178368","MEAN_MOTION":13.83190602,"ECCENTRICITY":0.0008694,"INCLINATION":81.3012,"RA_OF_ASC_NODE":108.0457,"ARG_OF_PERICENTER":114.644,"MEAN_ANOMALY":245.5623,"EPHEMERIS_TYPE":0,"CLASSIFICATION_TYPE":"U","NORAD_CAT_ID":65580,"ELEMENT_SET_NO":999,"REV_AT_EPOCH":2416,"BSTAR":4.58e-5,"MEAN_MOTION_DOT":6.2e-7,"MEAN_MOTION_DDOT":0},{"OBJECT_NAME":"PRAETORIAN SDA_618","OBJECT_ID":"2025-203S","EPOCH":"2026-03-04T03:17:15.002016","MEAN_MOTION":13.84761839,"ECCENTRICITY":0.0010907,"INCLINATION":81.2998,"RA_OF_ASC_NODE":107.8813,"ARG_OF_PERICENTER":115.8637,"MEAN_ANOMALY":244.3646,"EPHEMERIS_TYPE":0,"CLASSIFICATION_TYPE":"U","NORAD_CAT_ID":65581,"ELEMENT_SET_NO":999,"REV_AT_EPOCH":2417,"BSTAR":0.00024969,"MEAN_MOTION_DOT":2.93e-6,"MEAN_MOTION_DDOT":0},{"OBJECT_NAME":"PRAETORIAN SDA_619","OBJECT_ID":"2025-203T","EPOCH":"2026-03-04T02:37:43.717728","MEAN_MOTION":13.83930618,"ECCENTRICITY":0.0009352,"INCLINATION":81.302,"RA_OF_ASC_NODE":108.0434,"ARG_OF_PERICENTER":114.4353,"MEAN_ANOMALY":245.778,"EPHEMERIS_TYPE":0,"CLASSIFICATION_TYPE":"U","NORAD_CAT_ID":65582,"ELEMENT_SET_NO":999,"REV_AT_EPOCH":2479,"BSTAR":0.00030357,"MEAN_MOTION_DOT":3.49e-6,"MEAN_MOTION_DDOT":0},{"OBJECT_NAME":"PRAETORIAN SDA_620","OBJECT_ID":"2025-203U","EPOCH":"2026-03-04T02:49:32.396448","MEAN_MOTION":13.83705129,"ECCENTRICITY":0.0008869,"INCLINATION":81.3005,"RA_OF_ASC_NODE":108.0298,"ARG_OF_PERICENTER":113.6406,"MEAN_ANOMALY":246.5682,"EPHEMERIS_TYPE":0,"CLASSIFICATION_TYPE":"U","NORAD_CAT_ID":65583,"ELEMENT_SET_NO":999,"REV_AT_EPOCH":2416,"BSTAR":0.00033339,"MEAN_MOTION_DOT":3.8e-6,"MEAN_MOTION_DDOT":0},{"OBJECT_NAME":"PRAETORIAN SDA_621","OBJECT_ID":"2025-203V","EPOCH":"2026-03-04T04:11:11.824224","MEAN_MOTION":13.83786644,"ECCENTRICITY":0.0008654,"INCLINATION":81.2995,"RA_OF_ASC_NODE":107.9276,"ARG_OF_PERICENTER":109.2756,"MEAN_ANOMALY":250.9338,"EPHEMERIS_TYPE":0,"CLASSIFICATION_TYPE":"U","NORAD_CAT_ID":65584,"ELEMENT_SET_NO":999,"REV_AT_EPOCH":2417,"BSTAR":7.0379e-5,"MEAN_MOTION_DOT":9.0e-7,"MEAN_MOTION_DDOT":0},{"OBJECT_NAME":"PRAETORIAN SDA_601","OBJECT_ID":"2025-203W","EPOCH":"2026-03-04T02:42:10.999584","MEAN_MOTION":13.83484756,"ECCENTRICITY":0.0006421,"INCLINATION":81.3013,"RA_OF_ASC_NODE":108.1944,"ARG_OF_PERICENTER":120.5917,"MEAN_ANOMALY":239.5873,"EPHEMERIS_TYPE":0,"CLASSIFICATION_TYPE":"U","NORAD_CAT_ID":65585,"ELEMENT_SET_NO":999,"REV_AT_EPOCH":2415,"BSTAR":0.00033771,"MEAN_MOTION_DOT":3.84e-6,"MEAN_MOTION_DDOT":0}]
